{"type": "FeatureCollection", "features": [ {"type": "Feature", "properties": {"norad_id": 35176, "name": "FENGYUN 1C DEB", "group": "fengyun-1c-debris", "lat": 25.362851180899572, "lon": 157.35055278770076, "alt_km": 839.3305069236385, "timestamp": "2025-12-12T11:38:31.699649+00:00", "meta": {"OBJECT_NAME": "FENGYUN 1C DEB", "OBJECT_ID": "1999-025DNG", "EPOCH": "2025-12-09T16:49:46.258176", "MEAN_MOTION": 14.16987974, "ECCENTRICITY": 0.00548353, "INCLINATION": 98.5547, "RA_OF_ASC_NODE": 330.5809, "ARG_OF_PERICENTER": 65.1889, "MEAN_ANOMALY": 295.4977, "EPHEMERIS_TYPE": 0, "CLASSIFICATION_TYPE": "U", "NORAD_CAT_ID": 35176, "ELEMENT_SET_NO": 999, "REV_AT_EPOCH": 90885, "BSTAR": 0.00056919147, "MEAN_MOTION_DOT": 1.119e-05, "MEAN_MOTION_DDOT": 0}, "tle": {"line1": "1 35176U 99025DNG 25343.70122984  .00001119  00000+0  56919-3 0  9991", "line2": "2 35176  98.5547 330.5809 0054835  65.1889 295.4977 14.16987974908851"}}, "geometry": {"type": "Point", "coordinates": [157.35055278770076, 25.362851180899572]}}, {"type": "Feature", "properties": {"norad_id": 35191, "name": "FENGYUN 1C DEB", "group": "fengyun-1c-debris", "lat": -64.89619947801258, "lon": -11.801584908291382, "alt_km": 923.1165803274944, "timestamp": "2025-12-12T11:38:31.699658+00:00", "meta": {"OBJECT_NAME": "FENGYUN 1C DEB", "OBJECT_ID": "1999-025DNX", "EPOCH": "2025-12-10T04:43:45.837120", "MEAN_MOTION": 13.91201737, "ECCENTRICITY": 0.0102149, "INCLINATION": 99.0153, "RA_OF_ASC_NODE": 326.1699, "ARG_OF_PERICENTER": 215.7402, "MEAN_ANOMALY": 143.6891, "EPHEMERIS_TYPE": 0, "CLASSIFICATION_TYPE": "U", "NORAD_CAT_ID": 35191, "ELEMENT_SET_NO": 999, "REV_AT_EPOCH": 87866, "BSTAR": 0.00022431, "MEAN_MOTION_DOT": 2.51e-06, "MEAN_MOTION_DDOT": 0}, "tle": {"line1": "1 35191U 99025DNX 25344.19705830  .00000251  00000+0  22431-3 0  9997", "line2": "2 35191  99.0153 326.1699 0102149 215.7402 143.6891 13.91201737878663"}}, "geometry": {"type": "Point", "coordinates": [-11.801584908291382, -64.89619947801258]}}, {"type": "Feature", "properties": {"norad_id": 35194, "name": "FENGYUN 1C DEB", "group": "fengyun-1c-debris", "lat": 42.66895369051907, "lon": -101.86064937553863, "alt_km": 647.3495837183409, "timestamp": "2025-12-12T11:38:31.699669+00:00", "meta": {"OBJECT_NAME": "FENGYUN 1C DEB", "OBJECT_ID": "1999-025DPA", "EPOCH": "2025-12-12T01:09:46.825632", "MEAN_MOTION": 14.60293761, "ECCENTRICITY": 0.0114538, "INCLINATION": 98.9481, "RA_OF_ASC_NODE": 69.3173, "ARG_OF_PERICENTER": 78.0348, "MEAN_ANOMALY": 283.3663, "EPHEMERIS_TYPE": 0, "CLASSIFICATION_TYPE": "U", "NORAD_CAT_ID": 35194, "ELEMENT_SET_NO": 999, "REV_AT_EPOCH": 65380, "BSTAR": 0.0013885, "MEAN_MOTION_DOT": 7.302e-05, "MEAN_MOTION_DDOT": 0}, "tle": {"line1": "1 35194U 99025DPA 25346.04845863  .00007302  00000+0  13885-2 0  9993", "line2": "2 35194  98.9481  69.3173 0114538  78.0348 283.3663 14.60293761653806"}}, "geometry": {"type": "Point", "coordinates": [-101.86064937553863, 42.66895369051907]}}, {"type": "Feature", "properties": {"norad_id": 35195, "name": "FENGYUN 1C DEB", "group": "fengyun-1c-debris", "lat": 31.697350102915898, "lon": -93.6025416307579, "alt_km": 688.8993496700759, "timestamp": "2025-12-12T11:38:31.699678+00:00", "meta": {"OBJECT_NAME": "FENGYUN 1C DEB", "OBJECT_ID": "1999-025DPB", "EPOCH": "2025-12-10T12:47:45.242592", "MEAN_MOTION": 14.55993438, "ECCENTRICITY": 0.01037763, "INCLINATION": 98.9828, "RA_OF_ASC_NODE": 78.6916, "ARG_OF_PERICENTER": 75.1357, "MEAN_ANOMALY": 286.1305, "EPHEMERIS_TYPE": 0, "CLASSIFICATION_TYPE": "U", "NORAD_CAT_ID": 35195, "ELEMENT_SET_NO": 999, "REV_AT_EPOCH": 90894, "BSTAR": 0.0011905179, "MEAN_MOTION_DOT": 5.58e-05, "MEAN_MOTION_DDOT": 0}, "tle": {"line1": "1 35195U 99025DPB 25344.53316253  .00005580  00000+0  11905-2 0  9999", "line2": "2 35195  98.9828  78.6916 0103776  75.1357 286.1305 14.55993438908944"}}, "geometry": {"type": "Point", "coordinates": [-93.6025416307579, 31.697350102915898]}}, {"type": "Feature", "properties": {"norad_id": 35196, "name": "FENGYUN 1C DEB", "group": "fengyun-1c-debris", "lat": -55.77799112210848, "lon": 14.421787438002227, "alt_km": 706.5903442395929, "timestamp": "2025-12-12T11:38:31.699688+00:00", "meta": {"OBJECT_NAME": "FENGYUN 1C DEB", "OBJECT_ID": "1999-025DPC", "EPOCH": "2025-12-11T07:11:43.762848", "MEAN_MOTION": 14.19776896, "ECCENTRICITY": 0.02144959, "INCLINATION": 98.5365, "RA_OF_ASC_NODE": 0.5202, "ARG_OF_PERICENTER": 342.5363, "MEAN_ANOMALY": 27.4469, "EPHEMERIS_TYPE": 0, "CLASSIFICATION_TYPE": "U", "NORAD_CAT_ID": 35196, "ELEMENT_SET_NO": 999, "REV_AT_EPOCH": 89114, "BSTAR": 0.0014814691, "MEAN_MOTION_DOT": 3.906e-05, "MEAN_MOTION_DDOT": 0}, "tle": {"line1": "1 35196U 99025DPC 25345.29981207  .00003906  00000+0  14815-2 0  9994", "line2": "2 35196  98.5365   0.5202 0214495 342.5363  27.4469 14.19776896891145"}}, "geometry": {"type": "Point", "coordinates": [14.421787438002227, -55.77799112210848]}}, {"type": "Feature", "properties": {"norad_id": 35200, "name": "FENGYUN 1C DEB", "group": "fengyun-1c-debris", "lat": 71.55334870808153, "lon": 171.8411101938608, "alt_km": 904.5491772772448, "timestamp": "2025-12-12T11:38:31.699698+00:00", "meta": {"OBJECT_NAME": "FENGYUN 1C DEB", "OBJECT_ID": "1999-025DPG", "EPOCH": "2025-12-10T21:42:32.770944", "MEAN_MOTION": 13.41957834, "ECCENTRICITY": 0.0353291, "INCLINATION": 98.8704, "RA_OF_ASC_NODE": 322.5346, "ARG_OF_PERICENTER": 64.8789, "MEAN_ANOMALY": 326.8003, "EPHEMERIS_TYPE": 0, "CLASSIFICATION_TYPE": "U", "NORAD_CAT_ID": 35200, "ELEMENT_SET_NO": 999, "REV_AT_EPOCH": 65879, "BSTAR": 0.00059322, "MEAN_MOTION_DOT": 4.47e-06, "MEAN_MOTION_DDOT": 0}, "tle": {"line1": "1 35200U 99025DPG 25344.90454596  .00000447  00000+0  59322-3 0  9993", "line2": "2 35200  98.8704 322.5346 0353291  64.8789 326.8003 13.41957834658790"}}, "geometry": {"type": "Point", "coordinates": [171.8411101938608, 71.55334870808153]}}, {"type": "Feature", "properties": {"norad_id": 35201, "name": "FENGYUN 1C DEB", "group": "fengyun-1c-debris", "lat": -28.565807521574428, "lon": 0.31565837688793325, "alt_km": 860.8860770066594, "timestamp": "2025-12-12T11:38:31.699708+00:00", "meta": {"OBJECT_NAME": "FENGYUN 1C DEB", "OBJECT_ID": "1999-025DPH", "EPOCH": "2025-12-11T21:01:41.279808", "MEAN_MOTION": 14.11051889, "ECCENTRICITY": 0.0005845, "INCLINATION": 98.708, "RA_OF_ASC_NODE": 354.9389, "ARG_OF_PERICENTER": 252.0263, "MEAN_ANOMALY": 227.6445, "EPHEMERIS_TYPE": 0, "CLASSIFICATION_TYPE": "U", "NORAD_CAT_ID": 35201, "ELEMENT_SET_NO": 999, "REV_AT_EPOCH": 87007, "BSTAR": 0.00012722, "MEAN_MOTION_DOT": 1.86e-06, "MEAN_MOTION_DDOT": 0}, "tle": {"line1": "1 35201U 99025DPH 25345.87617222  .00000186  00000+0  12722-3 0  9991", "line2": "2 35201  98.7080 354.9389 0005845 252.0263 227.6445 14.11051889870078"}}, "geometry": {"type": "Point", "coordinates": [0.31565837688793325, -28.565807521574428]}}, {"type": "Feature", "properties": {"norad_id": 35202, "name": "FENGYUN 1C DEB", "group": "fengyun-1c-debris", "lat": -17.91099592441144, "lon": 34.81280236640553, "alt_km": 881.2269086477118, "timestamp": "2025-12-12T11:38:31.699718+00:00", "meta": {"OBJECT_NAME": "FENGYUN 1C DEB", "OBJECT_ID": "1999-025DPJ", "EPOCH": "2025-12-10T09:21:24.258240", "MEAN_MOTION": 13.34741042, "ECCENTRICITY": 0.03739815, "INCLINATION": 100.0904, "RA_OF_ASC_NODE": 29.443, "ARG_OF_PERICENTER": 13.8242, "MEAN_ANOMALY": 347.2795, "EPHEMERIS_TYPE": 0, "CLASSIFICATION_TYPE": "U", "NORAD_CAT_ID": 35202, "ELEMENT_SET_NO": 999, "REV_AT_EPOCH": 56945, "BSTAR": 0.00075501858, "MEAN_MOTION_DOT": 5.19e-06, "MEAN_MOTION_DDOT": 0}, "tle": {"line1": "1 35202U 99025DPJ 25344.38986410  .00000519  00000+0  75502-3 0  9990", "line2": "2 35202 100.0904  29.4430 0373981  13.8242 347.2795 13.34741042569456"}}, "geometry": {"type": "Point", "coordinates": [34.81280236640553, -17.91099592441144]}}, {"type": "Feature", "properties": {"norad_id": 35203, "name": "FENGYUN 1C DEB", "group": "fengyun-1c-debris", "lat": 66.71623636921778, "lon": -76.39400024701402, "alt_km": 1132.9386478081105, "timestamp": "2025-12-12T11:38:31.699728+00:00", "meta": {"OBJECT_NAME": "FENGYUN 1C DEB", "OBJECT_ID": "1999-025DPK", "EPOCH": "2025-12-11T04:29:49.245792", "MEAN_MOTION": 13.26418458, "ECCENTRICITY": 0.05113475, "INCLINATION": 102.0737, "RA_OF_ASC_NODE": 311.9182, "ARG_OF_PERICENTER": 162.6635, "MEAN_ANOMALY": 199.2677, "EPHEMERIS_TYPE": 0, "CLASSIFICATION_TYPE": "U", "NORAD_CAT_ID": 35203, "ELEMENT_SET_NO": 999, "REV_AT_EPOCH": 59630, "BSTAR": 0.0022866548, "MEAN_MOTION_DOT": 2.002e-05, "MEAN_MOTION_DDOT": 0}, "tle": {"line1": "1 35203U 99025DPK 25345.18737553  .00002002  00000+0  22867-2 0  9996", "line2": "2 35203 102.0737 311.9182 0511347 162.6635 199.2677 13.26418458596306"}}, "geometry": {"type": "Point", "coordinates": [-76.39400024701402, 66.71623636921778]}}, {"type": "Feature", "properties": {"norad_id": 35204, "name": "FENGYUN 1C DEB", "group": "fengyun-1c-debris", "lat": -25.316178262920406, "lon": -9.2983757698652, "alt_km": 748.6405065857789, "timestamp": "2025-12-12T11:38:31.699738+00:00", "meta": {"OBJECT_NAME": "FENGYUN 1C DEB", "OBJECT_ID": "1999-025DPL", "EPOCH": "2025-12-09T00:30:45.200736", "MEAN_MOTION": 14.48683418, "ECCENTRICITY": 0.00394138, "INCLINATION": 99.0062, "RA_OF_ASC_NODE": 171.3122, "ARG_OF_PERICENTER": 334.5683, "MEAN_ANOMALY": 177.0138, "EPHEMERIS_TYPE": 0, "CLASSIFICATION_TYPE": "U", "NORAD_CAT_ID": 35204, "ELEMENT_SET_NO": 999, "REV_AT_EPOCH": 90876, "BSTAR": 0.0027505821, "MEAN_MOTION_DOT": 0.00010427, "MEAN_MOTION_DDOT": 0}, "tle": {"line1": "1 35204U 99025DPL 25343.02135649  .00010427  00000+0  27506-2 0  9991", "line2": "2 35204  99.0062 171.3122 0039413 334.5683 177.0138 14.48683418908765"}}, "geometry": {"type": "Point", "coordinates": [-9.2983757698652, -25.316178262920406]}}]}